EUTELSAT 8 WEST B       
1 40875U 15039B   25245.42336483 -.00000064  00000+0  00000+0 0  9992
2 40875   0.0677 340.9047 0003650 182.6840 322.6354  1.00271599 36778
EUTELSAT 9B             
1 41310U 16005A   25245.36155866  .00000064  00000+0  00000+0 0  9997
2 41310   0.0233  57.4170 0002080 134.6992 288.8078  1.00274690 35230
EUTELSAT 65 WEST A      
1 41382U 16014A   25245.47931515 -.00000275  00000+0  00000+0 0  9996
2 41382   0.0564  15.4154 0002323 140.9085 292.9267  1.00271969 34652
EUTELSAT 117 WEST B     
1 41589U 16038B   25245.49507703 -.00000010  00000+0  00000+0 0  9998
2 41589   0.0116  35.2086 0000401 215.7002 152.2044  1.00271627 33777
EUTELSAT 172B           
1 42741U 17029B   25245.34399213 -.00000004  00000+0  00000+0 0  9992
2 42741   0.0172 169.5413 0000428 283.2574 184.7965  1.00270932 30843
EUTELSAT 7C             
1 44334U 19034B   25245.31131867  .00000050  00000+0  00000+0 0  9996
2 44334   0.0729 188.4392 0003275 315.9492 316.3875  1.00270165  3944
EUTELSAT 5 WEST B       
1 44624U 19067A   25245.38030565 -.00000041  00000+0  00000+0 0  9995
2 44624   0.1042 305.6372 0003195 215.6954 312.3397  1.00272726 21553
EUTELSAT KONNECT        
1 45027U 20005B   25245.31131867  .00000050  00000+0  00000+0 0  9996
2 45027   0.0617 100.6084 0001399  62.8364 297.5395  1.00267243 21440
